{
  "norad_id": 45071,
  "name": "STARLINK-1167",
  "history": [
    {
      "epoch": "2026-03-28T15:18:35.514720Z",
      "apogee_km": 475.3021018281497,
      "perigee_km": 472.1496967454459,
      "latitude_deg": -5.034355136349706e-06,
      "longitude_deg": 114.1719286029802,
      "height_km": 473.4214378124793,
      "semi_major_axis_km": 6851.862899286798,
      "eccentricity": 0.00023004,
      "inclination_deg": 53.1586,
      "raan_deg": 169.8754,
      "arg_perigee_deg": 40.2897,
      "mean_anomaly_deg": 319.8274,
      "mean_motion_rev_day": 15.30698883
    }
  ]
}