{"fetched_at":"2026-03-29T16:36:15Z","count":15609,"tles":[{"name":"STARLINK-1167","line1":"1 45071U 20006AD  26087.63791105  .00050957  00000+0  16945-2 0  9992","line2":"2 45071  53.1586 169.8754 0002300  40.2897 319.8274 15.30698883339776","category":"Starlink"}]}